[{"OBJECT_NAME":"STARLINK-5696","OBJECT_ID":"2023-015AM","EPOCH":"2026-03-09T22:00:01.999584","MEAN_MOTION":15.10049659,"ECCENTRICITY":0.00013038,"INCLINATION":42.9992,"RA_OF_ASC_NODE":337.471,"ARG_OF_PERICENTER":241.823,"MEAN_ANOMALY":35.7298,"EPHEMERIS_TYPE":0,"CLASSIFICATION_TYPE":"U","NORAD_CAT_ID":55484,"ELEMENT_SET_NO":999,"REV_AT_EPOCH":567,"BSTAR":0.0011033274,"MEAN_MOTION_DOT":0.00018091,"MEAN_MOTION_DDOT":0},{"OBJECT_NAME":"USA 3","OBJECT_ID":"1984-065C","EPOCH":"2026-03-09T16:01:22.012032","MEAN_MOTION":15.13173444,"ECCENTRICITY":0.000348,"INCLINATION":95.8957,"RA_OF_ASC_NODE":320.3284,"ARG_OF_PERICENTER":357.3815,"MEAN_ANOMALY":2.7401,"EPHEMERIS_TYPE":0,"CLASSIFICATION_TYPE":"U","NORAD_CAT_ID":15071,"ELEMENT_SET_NO":999,"REV_AT_EPOCH":10006,"BSTAR":0.0003647613,"MEAN_MOTION_DOT":6.429e-5,"MEAN_MOTION_DDOT":0}]
